{"type": "FeatureCollection", "features": [ {"type": "Feature", "properties": {"norad_id": 34784, "name": "COSMOS 2251 DEB", "group": "cosmos-2251-debris", "lat": -9.282499779696971, "lon": -37.697663331965664, "alt_km": 722.6460211098811, "timestamp": "2025-12-12T09:49:09.127189+00:00", "meta": {"OBJECT_NAME": "COSMOS 2251 DEB", "OBJECT_ID": "1993-036AAM", "EPOCH": "2025-12-12T00:00:06.416928", "MEAN_MOTION": 14.60774143, "ECCENTRICITY": 0.0049435, "INCLINATION": 74.0075, "RA_OF_ASC_NODE": 325.7716, "ARG_OF_PERICENTER": 135.3394, "MEAN_ANOMALY": 225.1771, "EPHEMERIS_TYPE": 0, "CLASSIFICATION_TYPE": "U", "NORAD_CAT_ID": 34784, "ELEMENT_SET_NO": 999, "REV_AT_EPOCH": 88524, "BSTAR": 0.00076688, "MEAN_MOTION_DOT": 3.779e-05, "MEAN_MOTION_DDOT": 0}, "tle": {"line1": "1 34784U 93036AAM 25346.00007427  .00003779  00000+0  76688-3 0  9990", "line2": "2 34784  74.0075 325.7716 0049435 135.3394 225.1771 14.60774143885244"}}, "geometry": {"type": "Point", "coordinates": [-37.697663331965664, -9.282499779696971]}}, {"type": "Feature", "properties": {"norad_id": 34790, "name": "COSMOS 2251 DEB", "group": "cosmos-2251-debris", "lat": 19.740243546080457, "lon": 58.412048037575, "alt_km": 869.6920230041214, "timestamp": "2025-12-12T09:49:09.127200+00:00", "meta": {"OBJECT_NAME": "COSMOS 2251 DEB", "OBJECT_ID": "1993-036AAT", "EPOCH": "2025-12-11T05:11:30.453216", "MEAN_MOTION": 14.24623165, "ECCENTRICITY": 0.01007965, "INCLINATION": 74.0532, "RA_OF_ASC_NODE": 246.4479, "ARG_OF_PERICENTER": 308.3141, "MEAN_ANOMALY": 216.5903, "EPHEMERIS_TYPE": 0, "CLASSIFICATION_TYPE": "U", "NORAD_CAT_ID": 34790, "ELEMENT_SET_NO": 999, "REV_AT_EPOCH": 86551, "BSTAR": 0.0011081532, "MEAN_MOTION_DOT": 2.689e-05, "MEAN_MOTION_DDOT": 0}, "tle": {"line1": "1 34790U 93036AAT 25345.21632469  .00002689  00000+0  11082-2 0  9994", "line2": "2 34790  74.0532 246.4479 0100796 308.3141 216.5903 14.24623165865510"}}, "geometry": {"type": "Point", "coordinates": [58.412048037575, 19.740243546080457]}}, {"type": "Feature", "properties": {"norad_id": 34792, "name": "COSMOS 2251 DEB", "group": "cosmos-2251-debris", "lat": 65.33271753810641, "lon": -151.05132504276003, "alt_km": 708.1685991156846, "timestamp": "2025-12-12T09:49:09.127210+00:00", "meta": {"OBJECT_NAME": "COSMOS 2251 DEB", "OBJECT_ID": "1993-036AAV", "EPOCH": "2025-12-11T22:32:37.582368", "MEAN_MOTION": 14.55942616, "ECCENTRICITY": 0.0012481, "INCLINATION": 74.018, "RA_OF_ASC_NODE": 171.2283, "ARG_OF_PERICENTER": 265.1574, "MEAN_ANOMALY": 224.3567, "EPHEMERIS_TYPE": 0, "CLASSIFICATION_TYPE": "U", "NORAD_CAT_ID": 34792, "ELEMENT_SET_NO": 999, "REV_AT_EPOCH": 87638, "BSTAR": 0.0015129, "MEAN_MOTION_DOT": 6.633e-05, "MEAN_MOTION_DDOT": 0}, "tle": {"line1": "1 34792U 93036AAV 25345.93932387  .00006633  00000+0  15129-2 0  9996", "line2": "2 34792  74.0180 171.2283 0012481 265.1574 224.3567 14.55942616876381"}}, "geometry": {"type": "Point", "coordinates": [-151.05132504276003, 65.33271753810641]}}, {"type": "Feature", "properties": {"norad_id": 34793, "name": "COSMOS 2251 DEB", "group": "cosmos-2251-debris", "lat": -47.611078273059796, "lon": 89.29610218462344, "alt_km": 805.2116324107583, "timestamp": "2025-12-12T09:49:09.127220+00:00", "meta": {"OBJECT_NAME": "COSMOS 2251 DEB", "OBJECT_ID": "1993-036AAW", "EPOCH": "2025-12-12T04:29:36.240000", "MEAN_MOTION": 14.38643294, "ECCENTRICITY": 0.0050269, "INCLINATION": 74.0027, "RA_OF_ASC_NODE": 251.3876, "ARG_OF_PERICENTER": 45.6431, "MEAN_ANOMALY": 115.7084, "EPHEMERIS_TYPE": 0, "CLASSIFICATION_TYPE": "U", "NORAD_CAT_ID": 34793, "ELEMENT_SET_NO": 999, "REV_AT_EPOCH": 87322, "BSTAR": 0.00039934, "MEAN_MOTION_DOT": 1.216e-05, "MEAN_MOTION_DDOT": 0}, "tle": {"line1": "1 34793U 93036AAW 25346.18722500  .00001216  00000+0  39934-3 0  9992", "line2": "2 34793  74.0027 251.3876 0050269  45.6431 115.7084 14.38643294873227"}}, "geometry": {"type": "Point", "coordinates": [89.29610218462344, -47.611078273059796]}}, {"type": "Feature", "properties": {"norad_id": 34796, "name": "COSMOS 2251 DEB", "group": "cosmos-2251-debris", "lat": -45.55457846738301, "lon": -160.0105525100302, "alt_km": 665.5970808458014, "timestamp": "2025-12-12T09:49:09.127230+00:00", "meta": {"OBJECT_NAME": "COSMOS 2251 DEB", "OBJECT_ID": "1993-036AAZ", "EPOCH": "2025-12-11T15:56:49.295616", "MEAN_MOTION": 14.48680944, "ECCENTRICITY": 0.01002247, "INCLINATION": 74.0297, "RA_OF_ASC_NODE": 218.361, "ARG_OF_PERICENTER": 320.6455, "MEAN_ANOMALY": 69.5316, "EPHEMERIS_TYPE": 0, "CLASSIFICATION_TYPE": "U", "NORAD_CAT_ID": 34796, "ELEMENT_SET_NO": 999, "REV_AT_EPOCH": 88012, "BSTAR": 0.00094017782, "MEAN_MOTION_DOT": 3.746e-05, "MEAN_MOTION_DDOT": 0}, "tle": {"line1": "1 34796U 93036AAZ 25345.66445944  .00003746  00000+0  94018-3 0  9995", "line2": "2 34796  74.0297 218.3610 0100224 320.6455  69.5316 14.48680944880122"}}, "geometry": {"type": "Point", "coordinates": [-160.0105525100302, -45.55457846738301]}}, {"type": "Feature", "properties": {"norad_id": 34797, "name": "COSMOS 2251 DEB", "group": "cosmos-2251-debris", "lat": 71.93741860992279, "lon": 162.37842770412595, "alt_km": 776.3105140601647, "timestamp": "2025-12-12T09:49:09.127241+00:00", "meta": {"OBJECT_NAME": "COSMOS 2251 DEB", "OBJECT_ID": "1993-036ABA", "EPOCH": "2025-12-08T02:15:30.483648", "MEAN_MOTION": 14.42690241, "ECCENTRICITY": 0.00721111, "INCLINATION": 73.9779, "RA_OF_ASC_NODE": 108.638, "ARG_OF_PERICENTER": 222.8023, "MEAN_ANOMALY": 136.7506, "EPHEMERIS_TYPE": 0, "CLASSIFICATION_TYPE": "U", "NORAD_CAT_ID": 34797, "ELEMENT_SET_NO": 999, "REV_AT_EPOCH": 87348, "BSTAR": 0.0033221371, "MEAN_MOTION_DOT": 0.00011397, "MEAN_MOTION_DDOT": 0}, "tle": {"line1": "1 34797U 93036ABA 25342.09410282  .00011397  00000+0  33221-2 0  9996", "line2": "2 34797  73.9779 108.6380 0072111 222.8023 136.7506 14.42690241873482"}}, "geometry": {"type": "Point", "coordinates": [162.37842770412595, 71.93741860992279]}}, {"type": "Feature", "properties": {"norad_id": 34814, "name": "COSMOS 2251 DEB", "group": "cosmos-2251-debris", "lat": 66.27930311995318, "lon": 7.158891662799881, "alt_km": 794.0882064391253, "timestamp": "2025-12-12T09:49:09.127251+00:00", "meta": {"OBJECT_NAME": "COSMOS 2251 DEB", "OBJECT_ID": "1993-036ABD", "EPOCH": "2025-12-12T04:32:11.308128", "MEAN_MOTION": 14.36890565, "ECCENTRICITY": 0.0056252, "INCLINATION": 73.8961, "RA_OF_ASC_NODE": 326.4591, "ARG_OF_PERICENTER": 216.0666, "MEAN_ANOMALY": 158.5556, "EPHEMERIS_TYPE": 0, "CLASSIFICATION_TYPE": "U", "NORAD_CAT_ID": 34814, "ELEMENT_SET_NO": 999, "REV_AT_EPOCH": 87325, "BSTAR": 0.0012384, "MEAN_MOTION_DOT": 3.705e-05, "MEAN_MOTION_DDOT": 0}, "tle": {"line1": "1 34814U 93036ABD 25346.18901977  .00003705  00000+0  12384-2 0  9997", "line2": "2 34814  73.8961 326.4591 0056252 216.0666 158.5556 14.36890565873250"}}, "geometry": {"type": "Point", "coordinates": [7.158891662799881, 66.27930311995318]}}, {"type": "Feature", "properties": {"norad_id": 34815, "name": "COSMOS 2251 DEB", "group": "cosmos-2251-debris", "lat": 1.4029448917861376, "lon": 62.049370565309, "alt_km": 665.2626110320498, "timestamp": "2025-12-12T09:49:09.127261+00:00", "meta": {"OBJECT_NAME": "COSMOS 2251 DEB", "OBJECT_ID": "1993-036ABE", "EPOCH": "2025-12-11T03:46:30.732960", "MEAN_MOTION": 14.78278256, "ECCENTRICITY": 0.00588695, "INCLINATION": 74.0447, "RA_OF_ASC_NODE": 244.9077, "ARG_OF_PERICENTER": 314.3657, "MEAN_ANOMALY": 45.2703, "EPHEMERIS_TYPE": 0, "CLASSIFICATION_TYPE": "U", "NORAD_CAT_ID": 34815, "ELEMENT_SET_NO": 999, "REV_AT_EPOCH": 88604, "BSTAR": 0.0014141563, "MEAN_MOTION_DOT": 0.00010555, "MEAN_MOTION_DDOT": 0}, "tle": {"line1": "1 34815U 93036ABE 25345.15730015  .00010555  00000+0  14142-2 0  9992", "line2": "2 34815  74.0447 244.9077 0058869 314.3657  45.2703 14.78278256886044"}}, "geometry": {"type": "Point", "coordinates": [62.049370565309, 1.4029448917861376]}}, {"type": "Feature", "properties": {"norad_id": 34816, "name": "COSMOS 2251 DEB", "group": "cosmos-2251-debris", "lat": -72.43709391791678, "lon": 77.69484750053527, "alt_km": 940.078502467436, "timestamp": "2025-12-12T09:49:09.127271+00:00", "meta": {"OBJECT_NAME": "COSMOS 2251 DEB", "OBJECT_ID": "1993-036ABF", "EPOCH": "2025-12-12T03:45:47.254752", "MEAN_MOTION": 13.58319359, "ECCENTRICITY": 0.0373457, "INCLINATION": 73.8863, "RA_OF_ASC_NODE": 144.0732, "ARG_OF_PERICENTER": 208.6345, "MEAN_ANOMALY": 271.0321, "EPHEMERIS_TYPE": 0, "CLASSIFICATION_TYPE": "U", "NORAD_CAT_ID": 34816, "ELEMENT_SET_NO": 999, "REV_AT_EPOCH": 82775, "BSTAR": 0.0017839, "MEAN_MOTION_DOT": 2.021e-05, "MEAN_MOTION_DDOT": 0}, "tle": {"line1": "1 34816U 93036ABF 25346.15679693  .00002021  00000+0  17839-2 0  9993", "line2": "2 34816  73.8863 144.0732 0373457 208.6345 271.0321 13.58319359827759"}}, "geometry": {"type": "Point", "coordinates": [77.69484750053527, -72.43709391791678]}}, {"type": "Feature", "properties": {"norad_id": 34818, "name": "COSMOS 2251 DEB", "group": "cosmos-2251-debris", "lat": 33.84207878135672, "lon": 106.48134790076577, "alt_km": 777.3560811291027, "timestamp": "2025-12-12T09:49:09.127282+00:00", "meta": {"OBJECT_NAME": "COSMOS 2251 DEB", "OBJECT_ID": "1993-036ABH", "EPOCH": "2025-12-11T07:00:52.985952", "MEAN_MOTION": 14.36964874, "ECCENTRICITY": 0.00240982, "INCLINATION": 74.0356, "RA_OF_ASC_NODE": 299.6, "ARG_OF_PERICENTER": 15.6095, "MEAN_ANOMALY": 113.4495, "EPHEMERIS_TYPE": 0, "CLASSIFICATION_TYPE": "U", "NORAD_CAT_ID": 34818, "ELEMENT_SET_NO": 999, "REV_AT_EPOCH": 87349, "BSTAR": 0.00039822572, "MEAN_MOTION_DOT": 1.157e-05, "MEAN_MOTION_DDOT": 0}, "tle": {"line1": "1 34818U 93036ABH 25345.29227993  .00001157  00000+0  39823-3 0  9998", "line2": "2 34818  74.0356 299.6000 0024098  15.6095 113.4495 14.36964874873496"}}, "geometry": {"type": "Point", "coordinates": [106.48134790076577, 33.84207878135672]}}]}